{
  "type": "FeatureCollection",
  "features": [
    {
      "type": "Feature",
      "properties": {
        "norad_id": 38857,
        "name": "GSAT0103 (GALILEO-FM3)",
        "group": "gnss",
        "lat": 55.71897766121655,
        "lon": -163.7314011727958,
        "alt_km": 23224.710156732694,
        "timestamp": "2025-12-27T03:58:44.397908+00:00",
        "meta_object_name": "GSAT0103 (GALILEO-FM3)",
        "meta_object_id": "2012-055A",
        "meta_epoch": "2025-12-22T21:54:43.252704",
        "meta_mean_motion": 1.70473351,
        "meta_eccentricity": 0.0002995,
        "meta_inclination": 55.698,
        "meta_ra_of_asc_node": 106.3873,
        "meta_arg_of_pericenter": 269.858,
        "meta_mean_anomaly": 90.0891,
        "meta_ephemeris_type": 0,
        "meta_classification_type": "U",
        "meta_norad_cat_id": 38857,
        "meta_element_set_no": 999,
        "meta_rev_at_epoch": 8200,
        "meta_bstar": 0,
        "meta_mean_motion_dot": 1e-07,
        "meta_mean_motion_ddot": 0,
        "tle_line1": "1 38857U 12055A   25356.91300061  .00000010  00000+0  00000+0 0  9994",
        "tle_line2": "2 38857  55.6980 106.3873 0002995 269.8580  90.0891  1.70473351 82005"
      },
      "geometry": {
        "type": "Point",
        "coordinates": [
          -163.7314011727958,
          55.71897766121655
        ]
      }
    },
    {
      "type": "Feature",
      "properties": {
        "norad_id": 38953,
        "name": "BEIDOU-2 G6 (C02)",
        "group": "gnss",
        "lat": 1.0787611895527704,
        "lon": -120.49712477890803,
        "alt_km": 35806.3817057044,
        "timestamp": "2025-12-27T03:58:44.397919+00:00",
        "meta_object_name": "BEIDOU-2 G6 (C02)",
        "meta_object_id": "2012-059A",
        "meta_epoch": "2025-12-26T19:58:57.019296",
        "meta_mean_motion": 1.0027452,
        "meta_eccentricity": 0.0007915,
        "meta_inclination": 3.983,
        "meta_ra_of_asc_node": 75.3721,
        "meta_arg_of_pericenter": 293.6787,
        "meta_mean_anomaly": 110.2093,
        "meta_ephemeris_type": 0,
        "meta_classification_type": "U",
        "meta_norad_cat_id": 38953,
        "meta_element_set_no": 999,
        "meta_rev_at_epoch": 4818,
        "meta_bstar": 0,
        "meta_mean_motion_dot": -1.55e-06,
        "meta_mean_motion_ddot": 0,
        "tle_line1": "1 38953U 12059A   25360.83260439 -.00000155  00000+0  00000+0 0  9996",
        "tle_line2": "2 38953   3.9830  75.3721 0007915 293.6787 110.2093  1.00274520 48180"
      },
      "geometry": {
        "type": "Point",
        "coordinates": [
          -120.49712477890803,
          1.0787611895527704
        ]
      }
    },
    {
      "type": "Feature",
      "properties": {
        "norad_id": 38977,
        "name": "LUCH 5B (SDCM/PRN 125)",
        "group": "gnss",
        "lat": 10.115341770228342,
        "lon": 139.13795728204454,
        "alt_km": 35794.048811907116,
        "timestamp": "2025-12-27T03:58:44.397929+00:00",
        "meta_object_name": "LUCH 5B (SDCM/PRN 125)",
        "meta_object_id": "2012-061A",
        "meta_epoch": "2025-12-26T06:28:21.776736",
        "meta_mean_motion": 1.00271436,
        "meta_eccentricity": 0.0006665,
        "meta_inclination": 10.1083,
        "meta_ra_of_asc_node": 51.5748,
        "meta_arg_of_pericenter": 196.3721,
        "meta_mean_anomaly": 287.8297,
        "meta_ephemeris_type": 0,
        "meta_classification_type": "U",
        "meta_norad_cat_id": 38977,
        "meta_element_set_no": 999,
        "meta_rev_at_epoch": 4787,
        "meta_bstar": 0,
        "meta_mean_motion_dot": -1.2e-06,
        "meta_mean_motion_ddot": 0,
        "tle_line1": "1 38977U 12061A   25360.26969649 -.00000120  00000+0  00000+0 0  9993",
        "tle_line2": "2 38977  10.1083  51.5748 0006665 196.3721 287.8297  1.00271436 47874"
      },
      "geometry": {
        "type": "Point",
        "coordinates": [
          139.13795728204454,
          10.115341770228342
        ]
      }
    },
    {
      "type": "Feature",
      "properties": {
        "norad_id": 39155,
        "name": "COSMOS 2485 (747)",
        "group": "gnss",
        "lat": 3.1261895564798197,
        "lon": 80.83015440194721,
        "alt_km": 19173.351311590963,
        "timestamp": "2025-12-27T03:58:44.397940+00:00",
        "meta_object_name": "COSMOS 2485 (747)",
        "meta_object_id": "2013-019A",
        "meta_epoch": "2025-12-26T16:36:31.892256",
        "meta_mean_motion": 2.13103192,
        "meta_eccentricity": 0.0025021,
        "meta_inclination": 65.3204,
        "meta_ra_of_asc_node": 79.3983,
        "meta_arg_of_pericenter": 230.593,
        "meta_mean_anomaly": 129.2312,
        "meta_ephemeris_type": 0,
        "meta_classification_type": "U",
        "meta_norad_cat_id": 39155,
        "meta_element_set_no": 999,
        "meta_rev_at_epoch": 9860,
        "meta_bstar": 0,
        "meta_mean_motion_dot": -8e-08,
        "meta_mean_motion_ddot": 0,
        "tle_line1": "1 39155U 13019A   25360.69203579 -.00000008  00000+0  00000+0 0  9991",
        "tle_line2": "2 39155  65.3204  79.3983 0025021 230.5930 129.2312  2.13103192 98601"
      },
      "geometry": {
        "type": "Point",
        "coordinates": [
          80.83015440194721,
          3.1261895564798197
        ]
      }
    },
    {
      "type": "Feature",
      "properties": {
        "norad_id": 39166,
        "name": "GPS BIIF-4  (PRN 27)",
        "group": "gnss",
        "lat": -4.8703501984741155,
        "lon": -87.48681438415463,
        "alt_km": 19966.953587264637,
        "timestamp": "2025-12-27T03:58:44.397950+00:00",
        "meta_object_name": "GPS BIIF-4  (PRN 27)",
        "meta_object_id": "2013-023A",
        "meta_epoch": "2025-12-26T04:14:33.249408",
        "meta_mean_motion": 2.00564526,
        "meta_eccentricity": 0.0138718,
        "meta_inclination": 54.6404,
        "meta_ra_of_asc_node": 276.0219,
        "meta_arg_of_pericenter": 48.7908,
        "meta_mean_anomaly": 312.4421,
        "meta_ephemeris_type": 0,
        "meta_classification_type": "U",
        "meta_norad_cat_id": 39166,
        "meta_element_set_no": 999,
        "meta_rev_at_epoch": 9241,
        "meta_bstar": 0,
        "meta_mean_motion_dot": -2.2e-07,
        "meta_mean_motion_ddot": 0,
        "tle_line1": "1 39166U 13023A   25360.17677372 -.00000022  00000+0  00000+0 0  9993",
        "tle_line2": "2 39166  54.6404 276.0219 0138718  48.7908 312.4421  2.00564526 92414"
      },
      "geometry": {
        "type": "Point",
        "coordinates": [
          -87.48681438415463,
          -4.8703501984741155
        ]
      }
    },
    {
      "type": "Feature",
      "properties": {
        "norad_id": 39199,
        "name": "IRNSS-1A",
        "group": "gnss",
        "lat": 19.991258951736643,
        "lon": -144.46996299180896,
        "alt_km": 35746.79495024465,
        "timestamp": "2025-12-27T03:58:44.397962+00:00",
        "meta_object_name": "IRNSS-1A",
        "meta_object_id": "2013-034A",
        "meta_epoch": "2025-12-24T18:29:47.559840",
        "meta_mean_motion": 1.00273605,
        "meta_eccentricity": 0.00238143,
        "meta_inclination": 35.3368,
        "meta_ra_of_asc_node": 66.3779,
        "meta_arg_of_pericenter": 212.7296,
        "meta_mean_anomaly": 146.6998,
        "meta_ephemeris_type": 0,
        "meta_classification_type": "U",
        "meta_norad_cat_id": 39199,
        "meta_element_set_no": 999,
        "meta_rev_at_epoch": 4561,
        "meta_bstar": 0,
        "meta_mean_motion_dot": 7.9e-07,
        "meta_mean_motion_ddot": 0,
        "tle_line1": "1 39199U 13034A   25358.77068935  .00000079  00000+0  00000+0 0  9994",
        "tle_line2": "2 39199  35.3368  66.3779 0023814 212.7296 146.6998  1.00273605 45619"
      },
      "geometry": {
        "type": "Point",
        "coordinates": [
          -144.46996299180896,
          19.991258951736643
        ]
      }
    },
    {
      "type": "Feature",
      "properties": {
        "norad_id": 39533,
        "name": "GPS BIIF-5  (PRN 30)",
        "group": "gnss",
        "lat": -1.4774911870869385,
        "lon": 155.24599728960752,
        "alt_km": 20324.867921092893,
        "timestamp": "2025-12-27T03:58:44.397972+00:00",
        "meta_object_name": "GPS BIIF-5  (PRN 30)",
        "meta_object_id": "2014-008A",
        "meta_epoch": "2025-12-23T16:16:25.020768",
        "meta_mean_motion": 2.00548852,
        "meta_eccentricity": 0.00795532,
        "meta_inclination": 53.5993,
        "meta_ra_of_asc_node": 156.4877,
        "meta_arg_of_pericenter": 225.9161,
        "meta_mean_anomaly": 133.4108,
        "meta_ephemeris_type": 0,
        "meta_classification_type": "U",
        "meta_norad_cat_id": 39533,
        "meta_element_set_no": 999,
        "meta_rev_at_epoch": 8616,
        "meta_bstar": 0,
        "meta_mean_motion_dot": 8.2e-07,
        "meta_mean_motion_ddot": 0,
        "tle_line1": "1 39533U 14008A   25357.67806737  .00000082  00000+0  00000+0 0  9990",
        "tle_line2": "2 39533  53.5993 156.4877 0079553 225.9161 133.4108  2.00548852 86167"
      },
      "geometry": {
        "type": "Point",
        "coordinates": [
          155.24599728960752,
          -1.4774911870869385
        ]
      }
    }
  ]
}